Business Name,Address,City,Zip Code,State,Website,Phone,Ratings
Concept Building Company,"1 Benjamin Way, Belconnen ACT 2617, Australia",Belconnen,2617,ACT,,+61 421 548 992,
IC Formwork,"1 Couranga Cres, Hume ACT 2620, Australia",Hume,2620,ACT,http://www.icformwork.com.au/,+61 2 6260 1260,4.4
Complete Cut,"1 Loureiro St, Conder ACT 2906, Australia",Conder,2906,ACT,http://www.completecutcanberra.com.au/,+61 417 485 771,4.5
Dream Build Services,"1/530 Cotter Rd, Coombs ACT 2611, Australia",Coombs,2611,ACT,https://dreambuildservices.com.au/,+61 468 427 448,5
Bunnings Gungahlin,"10 Gribble St, Gungahlin ACT 2912, Australia",Gungahlin,2912,ACT,https://www.bunnings.com.au/stores/act/gungahlin,+61 2 6123 0000,4.2
Pacific Formwork,"10 Johns Pl, Hume ACT 2620, Australia",Hume,2620,ACT,http://pacificformwork.com.au/,+61 2 6260 2562,4.3
Thor's Hammer,"10 Mildura St, Griffith ACT 2603, Australia",Griffith,2603,ACT,https://www.thors.com.au/,+61 2 6282 9900,4.9
Rabscrete,"108 Sturdee Cres, Monash ACT 2904, Australia",Monash,2904,ACT,,+61 437 444 332,
UC Refectory,"11 Kirinari St, Bruce ACT 2617",Bruce,2617,ACT,https://ucx.canberra.edu.au/life-at-uc/live-music.html,0458 709 183,4.3
University of Canberra Building 9,"11 Kirinari St, Bruce ACT 2617, Australia",Bruce,2617,ACT,https://www.canberra.edu.au/maps/buildings-directory/building-9,+61 2 6201 5111,4.5
University of Canberra,"11 Kirinari St, Bruce ACT 2617, Australia",Bruce,2617,ACT,https://www.canberra.edu.au/,+61 2 6201 5111,4
Flawless Finish Concreting,"11 Moloney Cl, Calwell ACT 2905, Australia",Calwell,2905,ACT,,+61 400 419 537,
Fyshwick Cement,"11 Sawmill Cct, Hume ACT 2620, Australia",Hume,2620,ACT,,+61 2 6280 6047,
Concrete Sleepers Canberra,"11 Sawmill Cct, Hume ACT 2620, Australia",Hume,2620,ACT,http://www.concretesleeperscanberra.com.au/,+61 2 6260 2270,4.9
CBR - RETAINING WALLS,"11 Sawmill Cct, Hume ACT 2620, Australia",Hume,2620,ACT,http://cbrretainingwalls.com.au/,+61 410 665 172,
Bluestone Landscapes Construction,"11 Tilley Pl, McKellar ACT 2614, Australia",McKellar,2614,ACT,http://www.bluestonelandscapes.com.au/,+61 410 743 033,4.9
Huon Contractors,"11 Wiluna St, Fyshwick ACT 2609, Australia",Fyshwick,2609,ACT,http://www.huon.net.au/,+61 2 6162 1400,5
1st Choice Flooring group,"11/13 Tralee St, Hume ACT 2620, Australia",Hume,2620,ACT,https://www.1stchoiceflooring.com.au/contact/,+61 2 9747 2874,
C&C Painting Group,"118 Lysaght St, Mitchell ACT 2911, Australia",Mitchell,2911,ACT,https://ccpaintinggroup.com.au/,+61 2 6221 3466,5
Mino's Concreter Service in Canberra,"12 Mault Pl, Monash ACT 2904, Australia",Monash,2904,ACT,http://concretorincanberra.com.au/,+61 419 292 100,5
Your Concreters Sydney,"1207/361 Sussex St, Sydney NSW 2000",Sydney,1207,NSW,http://www.concreterssydney.net.au/,(02) 9199 0497,5
Hi-Quality Concrete ACT,"14 Tennant St, Fyshwick ACT 2609, Australia",Fyshwick,2609,ACT,http://www.hqconcrete.com.au/,+61 2 6152 8510,4
Elvin Group,"15 Alderson Pl, Hume ACT 2620, Australia",Hume,2620,ACT,https://elvingroup.com.au/contact-us/,+61 2 6175 9600,4.7
RAM Constructions,"15 Baillieu Ct, Mitchell ACT 2911, Australia",Mitchell,2911,ACT,https://ramconstructions.com.au/,+61 2 6242 5200,3.6
Delta Group,"15 Geelong St, Fyshwick ACT 2609, Australia",Fyshwick,2609,ACT,https://www.deltagroup.com.au/,+61 2 6239 3411,
Nationwide Integrated,"15 Yallourn St, Fyshwick ACT 2609, Australia",Fyshwick,2609,ACT,http://www.nationwideintegrated.com.au/,+61 1300 773 712,4.9
Canberra Sand and Gravel - Parkwood Yard,"150 Parkwood Rd, Holt ACT 2615, Australia",Holt,2615,ACT,http://www.cansand.com.au/,+61 2 6255 1995,4.2
Bruceworks Landscaping Centre,"16 Kallaroo Rd, Pialligo ACT 2609",Pialligo,2609,ACT,http://www.bruceworks.com.au/,(02) 6230 5677,3.8
MW Stonework,"16 Lynch St, Hughes ACT 2605, Australia",Hughes,2605,ACT,,+61 415 561 980,2.3
InfraBuild Reinforcing - Canberra,"17 Sheppard St, Hume ACT 2620, Australia",Hume,2620,ACT,https://www.infrabuild.com/branch/infrabuild-steel-centre-canberra/,+61 2 6203 0200,4
"Canberra Sand and Gravel, West Belconnen Resource Management Centre","173 Parkwood Rd, Macnamara ACT 2617, Australia",Macnamara,2617,ACT,http://www.cansand.com.au/,,4.6
Queanbeyan Pre Mix Concrete,"18 Chapman St, Queanbeyan East NSW 2620, Australia",East,2620,NSW,https://www.queanbeyanpremixconcrete.com.au/,+61 2 6297 4115,5
Dunrite Fencing,"18 Handasyde St, Conder ACT 2906, Australia",Conder,2906,ACT,https://dunritefencing.com.au/,+61 412 844 461,5
Supreme Timber Floors,"19 Brookes St, Mitchell ACT 2911, Australia",Mitchell,2911,ACT,http://www.supremetimberfloors.com.au/,+61 1300 844 488,4.8
ACT Landscaping Canberra,"2 Akuna St, Canberra ACT 2601, Australia",Canberra,2601,ACT,https://www.actlandscaping.net.au/,+61 2 6105 9100,4.8
Design & Build Group,"2 Daplyn Cl, Weston ACT 2611, Australia",Weston,2611,ACT,https://designandbuildgroup.com.au/,+61 429 639 418,5
A.B.Concreter PTY LTD,"2 Moncrieff St, Dickson ACT 2602, Australia",Dickson,2602,ACT,,+61 474 189 254,5
Brindabella Contractors,"2 Purnell Pl, Calwell ACT 2905, Australia",Calwell,2905,ACT,,+61 2 6291 4571,
Coffey Testing - ACT,"2/16 Mildura St, Fyshwick ACT 2609, Australia",Fyshwick,2609,ACT,http://www.coffeytesting.com/,+61 2 8876 0550,5
Brack Concrete Designs,"2/30 Aurora Ave, Queanbeyan NSW 2620, Australia",Queanbeyan,2620,NSW,https://www.brackdesigns.com/about.html,+61 431 459 222,4.3
Choices Flooring Fyshwick,"2/4 Wiluna St, Fyshwick ACT 2609, Australia",Fyshwick,2609,ACT,http://www.choicesflooring.com.au/store/australian-capital-territory/fyshwick/unit-2-4-wiluna-street-fyshwick-act-2609/,+61 2 6280 4500,4.9
Grindstones Reflections,"2/41 Aurora Ave, Queanbeyan NSW 2620, Australia",Queanbeyan,2620,NSW,http://www.grindstonesreflections.au/,+61 466 367 007,5
Econ Houz Australia Pty Ltd,"2/87 Hoskins St, Mitchell ACT 2911, Australia",Mitchell,2911,ACT,http://econhouz.com.au/,+61 421 271 234,
Oxley Concrete Pty Ltd,"20 Edenvale St, Oxley QLD 4075, Australia",Oxley,4075,QLD,,,5
KENRO SERVICES,"20 Isa St, Fyshwick ACT 2609, Australia",Fyshwick,2609,ACT,https://www.kenro.com.au/,+61 2 6239 3211,4.1
Elvin Group,"20 Lithgow St, Fyshwick ACT 2609, Australia",Fyshwick,2609,ACT,https://elvingroup.com.au/,+61 2 6175 9600,
Heidelberg Materials - Canberra Concrete,"20 Lithgow St, Fyshwick ACT 2609, Australia",Fyshwick,2609,ACT,https://www.heidelbergmaterials.com.au/en,+61 132662,4.5
All Style Landscapes,"21 Lance Hill Ave, Dunlop ACT 2615, Australia",Dunlop,2615,ACT,http://allstylelandscapes.com.au/,+61 431 130 990,5
Canberra Airport,"21 Terminal Cct, Canberra Airport ACT 2609, Australia",Airport,2609,ACT,https://www.canberraairport.com.au/,+61 2 6275 2222,4.2
DeckSeal Canberra ( Canberra Decks and Carpentry),"22 Macedon Cres, Palmerston ACT 2913, Australia",Palmerston,2913,ACT,http://www.deckseal.com.au/,+61 430 161 324,4.9
KGF Landscaping and gardening service,"228 Plimsoll Dr, Casey ACT 2913",Casey,2913,ACT,,0424 988 600,4.6
Castle Construction Supplies,"23 Collie St, Fyshwick ACT 2609, Australia",Fyshwick,2609,ACT,http://castlesupplies.com.au/,+61 2 5105 3919,5
Capital Concrete Sleepers,"23 Collie St, Fyshwick ACT 2609, Australia",Fyshwick,2609,ACT,https://capitalsleepers.com.au/,+61 402 460 591,5
DiasGroupCo,"23 Marcus Clarke St, Canberra ACT 2601, Australia",Canberra,2601,ACT,http://diasgroupandco.com/,+61 416 447 702,
Monarch Building Solutions,"24 Lithgow St, Fyshwick ACT 2609, Australia",Fyshwick,2609,ACT,http://www.monarchbuildingsolutions.com.au/,+61 2 6162 0232,5
Mitchell Bink Concrete Design,"26 Barrier St, Fyshwick ACT 2609, Australia",Fyshwick,2609,ACT,http://www.mbconcretedesign.com.au/,+61 2 6109 0416,5
Total Scope Building Projects,"26 Bertel Cres, Chapman ACT 2611, Australia",Chapman,2611,ACT,http://www.totalscope.com.au/,+61 413 321 008,5
AA Sandblasting,"26 Cessnock St, Fyshwick ACT 2609, Australia",Fyshwick,2609,ACT,https://www.aasandblasting.com.au/,+61 2 6280 5128,4.7
Holcim Australia - Fyshwick Concrete,"26 Lithgow St, Fyshwick ACT 2609",Fyshwick,2609,ACT,http://www.holcim.com.au/,13 11 88,5
ACT Concreters,"264 City Walk, Canberra ACT 2601, Australia",Canberra,2601,ACT,http://actconcreters.com.au/,+61 2 6105 9002,
Kwik Kerb Gilmore Gungahlin,"28 Mcgrowdie Pl, Gordon ACT 2906, Australia",Gordon,2906,ACT,,,
The Moncrieff Concrete Wall,"29 Slim Dusty Cct, Moncrieff ACT 2914, Australia",Moncrieff,2914,ACT,,,
Austech landscaping and construction pty Ltd,"2A Nyawi Pl, Giralang ACT 2617, Australia",Giralang,2617,ACT,https://austechlandscapingcanberra.com/,+61 434 742 161,5
Tanga Landscaping,"3 Bow Pl, Fadden ACT 2904, Australia",Fadden,2904,ACT,http://www.tangalandscapingcanberra.com.au/,+61 412 630 346,3.5
Contour Asphalt Canberra,"3 Brier Pl, Melba ACT 2615, Australia",Melba,2615,ACT,http://contourconstructionscanberra.com.au/,+61 412 444 059,5
Dgr Concreting Services,"3 Hayley Cres, Karabar NSW 2620, Australia",Karabar,2620,NSW,,,
Canberra Grind And Polish,"3 Isabel Flick St, Bonner ACT 2914, Australia",Bonner,2914,ACT,http://cgpcanberra.com.au/,+61 401 418 996,3
Brown's Bobcat & Truck Hire,"3 Kingsbury St, Gowrie ACT 2904, Australia",Gowrie,2904,ACT,https://www.bobcatandtruckhireact.com.au/,+61 401 684 593,5
optimum Brick and Blocklaying,"3/5 Copper Cres, Beard ACT 2620, Australia",Beard,2620,ACT,https://optimumbrick.com.au/,+61 458 699 040,3
Salafia & Co,"3/51 Tennant St, Fyshwick ACT 2609, Australia",Fyshwick,2609,ACT,http://salafia.com.au/,+61 2 6162 1066,5
Digitizedstone,"3/55 Kendall Ave, Queanbeyan West NSW 2620, Australia",West,2620,NSW,http://www.digitizedstone.com/,+61 466 544 584,4.8
CE Construction Solutions,"30 Geelong St, Fyshwick ACT 2609, Australia",Fyshwick,2609,ACT,http://teamce.com.au/,+61 2 6280 6010,5
Quan Excavations,"30 Pickworth St, Holt ACT 2615, Australia",Holt,2615,ACT,https://www.quanexcavations.au/,+61 481 953 045,4.9
Ingold Floors,"31 Spongolite St, Beard ACT 2620, Australia",Beard,2620,ACT,https://www.ingoldfloors.com.au/contact-us,+61 411 334 709,
Restiron,"32 Tantalum St, Beard ACT 2620, Australia",Beard,2620,ACT,https://www.restironconcreting.com.au/,+61 2 6299 9110,
Boral Asphalt,"321 Mugga Ln, Red Hill ACT 2603, Australia",Hill,2603,ACT,https://www.boral.com.au/locations/boral-asphalt-canberra,+61 2 6239 6480,
OZI CONSTRUCTION PTY LTD,"34/9 Dawes St, Griffith ACT 2603, Australia",Griffith,2603,ACT,https://oziconstruction.com.au/,+61 411 536 844,5
Richard Hamill Pools | Concrete Pools Canberra,"37 Horrocks St, Pearce ACT 2607, Australia",Pearce,2607,ACT,,+61 418 624 114,5
Ultrafloors,"38 Gozzard St, Gungahlin ACT 2912, Australia",Gungahlin,2912,ACT,http://www.ultrafloors.com.au/,+61 426 899 133,5
Gungahlin Concrete Services,"38 Maryborough St, Fyshwick ACT 2609, Australia",Fyshwick,2609,ACT,http://www.gungahlinconcrete.com.au/,+61 2 6253 3978,5
Canberra Construction Recyclers,"384 Pialligo Ave, Pialligo ACT 2609, Australia",Pialligo,2609,ACT,http://www.ccract.com.au/,+61 2 6249 7427,4
Canberra Sand and Gravel - Hume Yard,"4 Johns Pl, Hume ACT 2620, Australia",Hume,2620,ACT,http://www.cansand.com.au/,+61 2 6260 1365,3.7
Savil Projects,"4/1 Mawson Pl, Mawson ACT 2607, Australia",Mawson,2607,ACT,https://www.savilgroup.com.au/,,
Paul Gaunt Flooring,"4/9 Lithgow St, Fyshwick ACT 2609, Australia",Fyshwick,2609,ACT,,+61 2 6284 4567,5
Bink Pavers,"40 Dacre St, Mitchell ACT 2911, Australia",Mitchell,2911,ACT,http://www.binkcement.com.au/,+61 2 6242 7033,4.6
Ruff Rock Polished Concrete Specialists,"40 Paterson Parade, Queanbeyan West NSW 2620, Australia",West,2620,NSW,http://ruffrock.com/,+61 409 674 496,5
Bungendore Concrete,"41 King St, Bungendore NSW 2621, Australia",Bungendore,2621,NSW,,+61 2 6238 1875,
Nathan Contractors Pty Ltd,"41 Liardet St, Chapman ACT 2611, Australia",Chapman,2611,ACT,https://nathancontractors.com.au/,,
Designer Concrete Coatings ACT,"44 Maryborough St, Fyshwick ACT 2609, Australia",Fyshwick,2609,ACT,,+61 418 632 641,4
J&J Building Australia,"47 Davidson St, Higgins ACT 2615, Australia",Higgins,2615,ACT,http://jjbuilding.com.au/,+61 428 099 056,4.2
ACT Concrete,"48 Hoskins St, Mitchell ACT 2911, Australia",Mitchell,2911,ACT,http://www.actconcrete.com.au/,+61 2 6262 0512,5
First Sheds Canberra,"48 Hoskins St, Mitchell ACT 2911, Australia",Mitchell,2911,ACT,http://www.firstsheds.com.au/,+61 2 6242 5927,4.8
Blades Landscaping,"48 Michie St, Wanniassa ACT 2903, Australia",Wanniassa,2903,ACT,http://www.bladeslandscaping.com.au/,+61 409 487 278,4.3
Palerang Concreting Supplies,"49 Carrington St, Queanbeyan East NSW 2620, Australia",East,2620,NSW,http://palerangconcretingsupplies.com.au/,+61 418 962 872,5
Heaven On Earth Landscaping,"49 Frome St, Griffith ACT 2603",Griffith,2603,ACT,https://www.canberralandscaper.com/,0418 161 920,5
All Concrete Services,"49 Melford St, Hurlstone Park NSW 2193",Park,2193,NSW,http://www.allconcreteservices.com.au/,0400 420 675,4.6
All Hard Floor and Carpet Canberrra,"5 Barber St, Queanbeyan NSW 2620, Australia",Queanbeyan,2620,NSW,http://www.allhardfloorandcarpet.com.au/,+61 404 158 489,5
Metzil Designs,"5 Walter Crocker Cres, Casey ACT 2913",Casey,2913,ACT,,0423 065 985,
Cancut Concrete,"5/7 Felton St, Mitchell ACT 2911, Australia",Mitchell,2911,ACT,http://www.cancut.com.au/,+61 410 548 069,4.2
Canberra Clear Landscaping,"50 Osburn Dr, MacGregor ACT 2615, Australia",MacGregor,2615,ACT,http://www.canberraclear.com.au/,+61 450 535 649,5
Canberra Sand and Gravel Mitchell Yard,"50 Vicars St, Mitchell ACT 2911, Australia",Mitchell,2911,ACT,http://www.cansand.com.au/,+61 2 6241 5945,3.8
Long Stride Stone Masonry,"52 David Fleay St, Wright ACT 2611, Australia",Wright,2611,ACT,http://www.longstridestonemasonry.com.au/contact-us,+61 451 046 793,4.3
Diquip Constructions,"52 Grimwade St, Mitchell ACT 2911, Australia",Mitchell,2911,ACT,,+61 2 6170 3395,
Gee Residential Landscape & Concrete,"52 Lorraway St, Holt ACT 2615, Australia",Holt,2615,ACT,http://www.geeresidential.com.au/,+61 410 050 903,4.7
Chapman Built,"55 Millen St, Hughes ACT 2605, Australia",Hughes,2605,ACT,http://chapmanbuilt.com.au/,+61 408 681 941,
Koalaâ€™s Gardening and Landscaping Pty. Ltd,"56 Ian Potter Cres, Gungahlin ACT 2912, Australia",Gungahlin,2912,ACT,,+61 401 720 726,4.7
Paint Plus Canberra,"57 Brereton St, Garran ACT 2605, Australia",Garran,2605,ACT,https://www.paintplus.net.au/,+61 407 708 060,4.9
Cercol Construction Services,"57 Tantalum St, Beard ACT 2609, Australia",Beard,2609,ACT,https://www.cercol.com.au/,+61 2 6239 3735,
Kita,"59 Boolimba Cres, Narrabundah ACT 2604, Australia",Narrabundah,2604,ACT,https://www.kitakafe.com.au/,+61 400 577 089,4.7
AUSTRALIAN SUBSURFACE,"59 Wollongong St, Fyshwick ACT 2609, Australia",Fyshwick,2609,ACT,http://australiansubsurface.au/,+61 427 879 600,
Canberra Mini-Mixed Concrete,"6 Barrier St, Fyshwick ACT 2609, Australia",Fyshwick,2609,ACT,http://www.canberraminimixed.com.au/,+61 2 6280 5130,5
SKY HOMES ACT PTY LTD,"6 Boyanton St, Denman Prospect ACT 2611, Australia",Prospect,2611,ACT,https://skyhomesact.com/,+61 422 262 216,5
Botanica Landscapes,"6 Huon Pl, Lyons ACT 2606, Australia",Lyons,2606,ACT,https://botanicalandscapes.com.au/,+61 415 288 889,5
LFX Group,"6 Nick Ellis Pl, Hume ACT 2620, Australia",Hume,2620,ACT,http://www.lfxgroup.com.au/,+61 2 6260 2153,4.5
Act Formwork,"6 Spongolite St, Beard ACT 2620",Beard,2620,ACT,https://actformwork.com.au/,(02) 6291 8780,
"University of Canberra, Building 6","6, Jamberoo St, Bruce ACT 2617, Australia",Bruce,2617,ACT,https://www.canberra.edu.au/maps/buildings-directory/building-6,+61 2 6201 5111,5
RIGA Precast,"60 Paterson Parade, Queanbeyan West NSW 2620, Australia",West,2620,NSW,http://www.rigaprecast.com/,+61 409 674 496,5
Canberra Precast,"62 Sawmill Cct, Hume ACT 2620, Australia",Hume,2620,ACT,,+61 2 6260 1139,5
Precast Concrete Solutions,"63-69 High St, Queanbeyan East NSW 2620, Australia",East,2620,NSW,https://www.precastconcrete.com.au/,+61 2 6297 1611,3
Trussed Building Solutions,"64 OSBURN DRIVE MACGREGOR, CANBERRA ACT 2615, Australia",CANBERRA,2615,ACT,,+61 431 336 948,
Advanced Decorative Concreting,"66 Elizabeth Cres, Queanbeyan East NSW 2620, Australia",East,2620,NSW,https://www.advancedeconcreting.com.au/,+61 407 773 345,5
Boral Concrete,"66 Hoskins St, Mitchell ACT 2603, Australia",Mitchell,2603,ACT,https://www.boral.com.au/locations/boral-concrete-mitchell,+61 2 6195 2922,5
Erindale Shopping Centre,"68 Comrie St, Wanniassa ACT 2903, Australia",Wanniassa,2903,ACT,,,3.9
Andy's Landscaping - Excavation and Landscaping Inc.,"68 Crozier Cct, Kambah ACT 2902, Australia",Kambah,2902,ACT,https://www.andys-landscaping.com/,+61 424 456 093,5
CM Formwork Canberra,"7 Bayldon Rd, Queanbeyan West NSW 2620, Australia",West,2620,NSW,https://concretemendersact.com.au/,+61 401 199 285,5
Concretors Warehouse Canberra PTY Ltd.,"7 Cheney Pl, Mitchell ACT 2911, Australia",Mitchell,2911,ACT,http://www.elvingroup.com.au/,+61 2 6175 9600,5
Elvin Group,"7 Cheney Pl, Mitchell ACT 2911, Australia",Mitchell,2911,ACT,https://elvingroup.com.au/,+61 2 6175 9600,4.6
Colla Concrete Constructions,"7 Davidson Pl, Griffith NSW 2680, Australia",Griffith,2680,NSW,,+61 412 625 462,5
Premier Precast,"7 Silva Ave, Queanbeyan NSW 2620, Australia",Queanbeyan,2620,NSW,http://www.premierprecast.com.au/,,3
BMD,"7/189 Flemington Rd, Mitchell ACT 2911, Australia",Mitchell,2911,ACT,http://www.bmd.com.au/,+61 2 6123 8500,5
CPS Concrete Group,"7/63-65 Wollongong St, Fyshwick ACT 2609, Australia",Fyshwick,2609,ACT,http://www.cpscg.com.au/,+61 2 6228 1552,3.9
Holcim - Mitchell Concrete,"70 Hoskins St, Mitchell ACT 2911, Australia",Mitchell,2911,ACT,http://www.holcim.com.au/,+61 131188,5
Monaro Mix Specified Concrete,"72 Hoskins St, Mitchell ACT 2911, Australia",Mitchell,2911,ACT,https://monaromix.com.au/,+61 2 6241 3917,4.3
Act House & Landscaping Maintenance,"772 CIVIC SQUARE ACT 2608, Canberra ACT 2601, Australia",Canberra,2608,ACT,https://www.acthouselandscapingm.com.au/,+61 406 700 400,4.9
Stonehenge Beltana,"8 Beltana Rd, Pialligo ACT 2609",Pialligo,2609,ACT,http://stonehengebeltana.com.au/,(02) 6248 9063,4.3
JAG Pumping,"8 Daly St, Queanbeyan NSW 2620",Queanbeyan,2620,NSW,http://www.jagpumping.com.au/,0409 305 404,3.4
Milan's Concrete Pumping Services,"8 Daly St, Queanbeyan West NSW 2620, Australia",West,2620,NSW,,+61 418 623 045,5
ALCON concrete constructions,"8 Macgibbon Parade, Old Erowal Bay NSW 2540, Australia",Bay,2540,NSW,https://www.localsearch.com.au/profile/alcon-concrete-construction/old-erowal-bay-nsw/gvvK,+61 418 433 201,
McRae Concreting,"8 Oakwood Pl, Isabella Plains ACT 2905, Australia",Plains,2905,ACT,https://www.mcraesconcreting.com.au/contact-us,+61 407 408 573,
Rendering ACT,"8 Telfer St, Coombs ACT 2611, Australia",Coombs,2611,ACT,https://renderingact.com/,+61 401 816 704,4.8
Capital Cement Rendering Canberra,"8 Trevillian Quay, Kingston ACT 2604, Australia",Kingston,2604,ACT,,+61 414 529 934,
Amber Fyshwick,"8 Yallourn St, Fyshwick ACT 2609, Australia",Fyshwick,2609,ACT,https://www.ambertiles.com.au/locations/amber-fyshwick,+61 2 6189 2442,3.2
Canberra Concrete & Drainage,"82 Kalgoorlie Cres, Fisher ACT 2611, Australia",Fisher,2611,ACT,https://canberraconcreteanddrainage.com.au/,+61 2 6288 5123,5
Manteena Group,"84 Barrier St, Fyshwick ACT 2609, Australia",Fyshwick,2609,ACT,https://www.manteena.com.au/,+61 2 6280 7033,4.4
Phillip Island Pre-Mix Concrete,"886 Phillip Island Rd, Newhaven VIC 3925, Australia",Newhaven,3925,VIC,,+61 3 5956 8302,4.5
Monaro Mix Specified Concrete,"9 Bowen Pl, Queanbeyan West NSW 2620, Australia",West,2620,NSW,https://monaromix.com.au/,+61 2 6297 3325,3.3
Not Just Concrete,"9 Carinya St, Queanbeyan NSW 2620, Australia",Queanbeyan,2620,NSW,,,
iNDETAiL Civil Canberra,"9 Copper Cres, Beard ACT 2620, Australia",Beard,2620,ACT,https://indetailcivil.com.au/,+61 400 220 221,1.7
Precast Projects,"9 Couranga Cres, Hume ACT 2620, Australia",Hume,2620,ACT,http://precastprojects.com.au/,+61 2 6260 2790,5
Dunrite Building Services,"9 Quamby Pl, Lyons ACT 2606, Australia",Lyons,2606,ACT,https://dunriteact.com.au/,+61 456 789 767,
G&G Group,"91-93 Grimwade St, Mitchell ACT 2911, Australia",Mitchell,2911,ACT,https://gnggroup.com.au/,+61 488 288 322,5
title,address,#N/A,#N/A,#N/A,website,phone,rating
Arctic Walls,"ATC/81 Holborow Ave, Denman Prospect ACT 2611, Australia",Prospect,2611,ACT,http://articwalls.au/,+61 413 301 721,
Australian Capital Territory,Australia,#N/A,#N/A,#N/A,,,
RC Bricklaying and Landscaping,"Bandulla St, Isabella Plains ACT 2905, Australia",Plains,2905,ACT,,+61 401 292 013,5
"University of Canberra, Building 7",Bruce ACT 2617,#N/A,2617,ACT,,,4.3
Final Finish Concreting,"Bungendore NSW 2621, Australia",#N/A,2621,NSW,,+61 407 074 330,
The Australian National University,Canberra ACT 2601,#N/A,2601,ACT,https://www.anu.edu.au/,(02) 6125 5111,4.4
Topend FRP,"Canberra ACT 2601, Australia",#N/A,2601,ACT,,+61 424 977 464,5
Precast Homes,"Canberra ACT 2601, Australia",#N/A,2601,ACT,http://www.precasthomes.com.au/,+61 481 160 144,4.8
Brindabella Excavations and Earthworks,"Cook ACT 2614, Australia",#N/A,2614,ACT,,+61 468 475 571,3
Concrete Pumping Phillip Island,"Cowes VIC 3922, Australia",#N/A,3922,VIC,,+61 411 856 795,5
Corrib Formwork,"Cretonia house, Unit 13 2/10 Oatley Ct, Belconnen ACT 2617, Australia",Belconnen,2617,ACT,,+61 2 6253 1011,
Utopian Landscaping and Paving Solutions,"Dilboong Pl, Chisholm ACT 2905, Australia",Chisholm,2905,ACT,http://www.utopianlandscaping.com.au/,+61 423 814 300,5
Civilmart Queanbeyan- Formally CAPITAL PRECAST & DRAINAGE,"E/13 Endurance Ave, Queanbeyan NSW 2620, Australia",Queanbeyan,2620,NSW,,+61 2 6299 3422,4.8
Australian Shotcrete Society,"Engineering House, 11 National Circuit, Barton ACT 2600, Australia",Barton,2600,ACT,http://shotcretesociety.com.au/,+61 418 407 892,
LEADING OUTDOOR SOLUTIONS,"Essington St, Mitchell ACT 2911, Australia",Mitchell,2911,ACT,https://leadingoutdoorsolutions.com/,+61 421 835 593,5
Empire Global,"Flemington Rd, Harrison ACT 2914, Australia",Harrison,2914,ACT,https://www.empireglobal.com.au/,,1.8
Terry Bros. Carpet Court (Phillip),"Hindmarsh Dr, Phillip ACT 2606, Australia",Phillip,2606,ACT,https://www.carpetcourt.com.au/stores/act/phillip,+61 2 6285 1888,4.7
CANBERRA POOL REMOVALS,"Hume Estate, Unit 2/88 Sheppard St, Hume ACT 2620, Australia",Hume,2620,ACT,http://canberrapoolremoval.com.au/,+61 2 6260 2153,5
Paramount Concrete,"Hume Estate, Unit 2/88 Sheppard St, Hume ACT 2620, Australia",Hume,2620,ACT,http://paramountconcrete.com.au/,+61 2 6260 2153,
5star Construction Services,"Isa St, Fyshwick ACT 2609, Australia",Fyshwick,2609,ACT,,+61 2 6105 9030,
"Fairview Terraces, Wright, ACT, 2611","John Gorton Drive after, Opperman Ave, Wright ACT 2611, Australia",Wright,2611,ACT,http://wwe.smarthomecreations.com.au/,+61 468 925 621,5
Pipeco Concrete Act Pty Ltd,"KIPPAX, 70120, MacGregor ACT 2615, Australia",MacGregor,7012,ACT,,+61 418 620 881,
New Wave Concreting,"Level 1, Factory 3/87-89 Settlement Rd, Cowes VIC 3922, Australia",Cowes,3922,VIC,https://newwaveconcreting.com.au/,+61 402 454 742,5
SuperStruct.,"Level 1/55 Wentworth Ave, Kingston ACT 2604, Australia",Kingston,2604,ACT,http://superstruct.com.au/,+61 2 6185 5111,4.7
Boral Concrete,"LOT 100 Kaveneys Rd, Jeir NSW 2582, Australia",Jeir,2582,NSW,https://www.boral.com.au/locations/boral-concrete-hall,+61 1300 131 599,5
Allstructural Consulting Engineer,"Manuka Court, Unit 20/11 Bougainville St, Griffith ACT 2603, Australia",Griffith,2603,ACT,http://www.allstructural.com.au/,+61 432 638 115,4.6
Kwik Kerb,"Moringol Pl, Royalla NSW 2620, Australia",Royalla,2620,NSW,,+61 418 216 413,
Corkhill Bros,"Mugga Ln, Symonston ACT 2609, Australia",Symonston,2609,ACT,http://www.corkhillbros.com.au/,+61 2 6239 7200,4.3
Sculpture Garden,"Parkes Pl, Parkes ACT 2600, Australia",Parkes,2600,ACT,https://nga.gov.au/art-artists/sculpture-garden/,+61 2 6240 6711,4.6
Terrain Projects,"Summerland Cct, Kambah ACT 2902, Australia",Kambah,2902,ACT,http://www.terrainprojects.com/,+61 424 972 302,3
JJ's Construction & Landscaping Pty Ltd,"The Realm, Level 1/18 National Circuit, Barton ACT 2600, Australia",Barton,2600,ACT,http://jjsconstruction.com.au/,,
NGAA MAA,"The Realm, Level 1/18 National Circuit, Barton ACT 2600, Australia",Barton,2600,ACT,https://www.ngaamaa.com/,+61 1300 085 047,
Lyons Cricket Nets (Concrete),"Tooms Pl, Lyons ACT 2606, Australia",Lyons,2606,ACT,,+61 420 277 815,4
No Limit Group,"Unit 1/10 Dundas Ct, Phillip ACT 2606, Australia",Phillip,2606,ACT,http://nolimitgroup.com.au/,+61 2 6282 4709,5
Parkes Ready Mixed Concrete,"Unit 12/14 Matthews St, Parkes NSW 2870, Australia",Parkes,2870,NSW,http://www.parkesconcrete.com.au/,+61 2 6862 4655,5
Construction Control,"Unit 124, Level 1/24 Lonsdale St, Braddon ACT 2612, Australia",Braddon,2612,ACT,http://www.ccontrol.com.au/,+61 2 6257 4775,4.2
In-Depth Landscape Construction,"Unit 3/1 Sawmill Cct, Hume ACT 2620, Australia",Hume,2620,ACT,https://www.indepthlandscaping.com.au/,+61 2 6293 2257,5
Appex Building Group,"Unit 3/4 Pelle St, Mitchell ACT 2911, Australia",Mitchell,2911,ACT,https://www.appexbuilding.com.au/,+61 1300 427 739,4.9
Country Builders,"Unit 3/7 Sleigh Pl, Hume ACT 2620, Australia",Hume,2620,ACT,https://countrybuilders.com.au/,+61 2 6297 0100,5
Forge Constructions (AUS) Pty Limited,"Unit 4/173 Flemington Rd, Mitchell ACT 2911, Australia",Mitchell,2911,ACT,https://www.forgeconstructions.com.au/,+61 412 391 326,5
JSC Pty Ltd,"unit 5/59 Vicars St, Mitchell ACT 2911, Australia",Mitchell,2911,ACT,https://jsccanberra.com.au/,+61 2 6174 1280,2.4
Nanak Landscaping Act,"Vahland St, Taylor ACT 2913, Australia",Taylor,2913,ACT,,+61 450 763 774,4.8
ADA Civil,"Verbrugghen St, Melba ACT 2615, Australia",Melba,2615,ACT,,+61 2 5104 1000,